OBJECT_NAME,OBJECT_ID,EPOCH,MEAN_MOTION,ECCENTRICITY,INCLINATION,RA_OF_ASC_NODE,ARG_OF_PERICENTER,MEAN_ANOMALY,EPHEMERIS_TYPE,CLASSIFICATION_TYPE,NORAD_CAT_ID,ELEMENT_SET_NO,REV_AT_EPOCH,BSTAR,MEAN_MOTION_DOT,MEAN_MOTION_DDOT
ASTRA 2E,2013-056A,2026-07-02T20:31:19.792416,1.00275076,.00027048,0.0750,315.0265,163.6107,138.5858,0,U,39285,999,4657,0,.161E-5,0
FM-6,2013-058A,2026-07-02T16:51:02.864736,1.00271889,.00019604,0.0160,40.7600,138.6453,237.7772,0,U,39360,999,4622,0,-.5E-7,0
RADUGA-1M 3,2013-062A,2026-07-02T17:34:15.543840,1.00273797,.00018777,5.9949,72.1589,282.0892,225.0751,0,U,39375,999,4626,0,.161E-5,0
SES-8,2013-071A,2026-07-02T19:18:54.957600,1.00272753,.00030427,0.0422,267.1121,191.9070,206.5515,0,U,39460,999,4458,0,-.259E-5,0
INMARSAT 5-F1,2013-073A,2026-07-02T20:52:37.649280,1.00272744,.00005811,0.0185,28.4066,336.8665,291.4245,0,U,39476,999,4573,0,.38E-6,0
TKSAT-1 (TUPAC KATARI),2013-075A,2026-07-02T18:42:05.414976,1.00270892,.00027535,0.0394,135.7643,319.4750,18.9061,0,U,39481,999,4576,0,-.184E-5,0
EXPRESS-AM5,2013-077A,2026-07-03T06:02:48.219936,1.00269380,.00002186,0.0200,291.7142,104.0174,116.2728,0,U,39487,999,4652,0,-.269E-5,0
GSAT-14,2014-001A,2026-07-02T20:54:36.453600,1.00271215,.00011932,0.0413,238.9741,323.5335,106.0361,0,U,39498,999,4553,0,-.66E-6,0
THAICOM 6,2014-002A,2026-07-02T18:58:17.044320,1.00270897,.00047444,0.0602,108.9092,8.4238,166.5786,0,U,39500,999,4561,0,-.11E-5,0
TDRS 12,2014-004A,2026-07-02T18:55:11.099424,1.00277712,.0003584,3.9918,19.3334,202.0522,302.2281,0,U,39504,999,4443,0,-.26E-5,0
ABS-2,2014-006A,2026-07-02T20:54:36.437184,1.00271934,.00038477,0.0231,68.9749,17.2160,223.2832,0,U,39508,999,4543,0,-.75E-6,0
ATHENA-FIDUS,2014-006B,2026-07-02T19:17:36.473568,1.00272735,.00016463,0.0288,94.4527,18.7048,134.8786,0,U,39509,999,4524,0,.165E-5,0
TURKSAT 4A,2014-007A,2026-07-02T19:56:12.653664,1.00273737,.00007267,0.0862,281.0803,326.2318,14.6175,0,U,39522,999,4512,0,.157E-5,0
EXPRESS-AT1,2014-010A,2026-07-03T03:58:30.686880,1.00308006,.00045496,0.2972,85.4960,45.6210,274.0007,0,U,39612,999,4497,0,.17E-6,0
EXPRESS-AT2,2014-010B,2026-07-02T21:21:34.500960,1.00270417,.0000327,0.0185,22.0359,74.7934,200.4841,0,U,39613,999,4465,0,0,0
AMAZONAS 4A,2014-011A,2026-07-02T18:45:40.773888,1.00269478,.00049412,0.0699,210.9618,278.3284,358.9301,0,U,39616,999,4487,0,-.241E-5,0
ASTRA 5B,2014-011B,2026-07-02T20:26:31.722720,1.00274657,.00022147,0.0771,302.4799,165.1332,143.4211,0,U,39617,999,4482,0,.148E-5,0
IRNSS-1B,2014-017A,2026-07-02T17:39:52.504704,1.00271810,.00228952,28.8979,240.1346,194.2235,166.4341,0,U,39635,999,4495,0,.142E-5,0
LUCH-5V,2014-023A,2026-07-03T14:23:06.373248,1.00269639,.00026524,5.1713,69.5823,58.4202,104.1308,0,U,39727,999,4452,0,-.259E-5,0
KAZSAT-3,2014-023B,2026-07-02T18:35:39.751296,1.00274193,.00003398,0.0106,10.0372,160.4347,87.7460,0,U,39728,999,4261,0,.71E-6,0
EUTELSAT 3B,2014-030A,2026-07-02T21:00:17.627328,1.00271951,.00041882,0.0604,6.7944,92.6592,139.6121,0,U,39773,999,4422,0,.31E-6,0
ASIASAT 8 (AMOS-7),2014-046A,2026-07-02T19:31:37.802208,1.00274517,.00017359,0.0374,271.3352,180.2701,227.4435,0,U,40107,999,10230,0,-.322E-5,0
ASIASAT 6,2014-052A,2026-07-03T23:30:38.579616,1.00273790,.00008,0.0303,270.0420,208.6830,275.8426,0,U,40141,999,4324,0,-.35E-5,0
OPTUS 10,2014-054A,2026-07-02T18:08:46.110336,1.00270505,.0002126,0.1130,348.9527,112.6926,247.3481,0,U,40146,999,4318,0,-.137E-5,0
MEASAT-3B,2014-054B,2026-07-02T21:03:23.827104,1.00271260,.00025472,0.0243,13.0749,71.9713,243.2055,0,U,40147,999,4306,0,-.231E-5,0
HIMAWARI-8,2014-060A,2026-07-02T20:32:04.143264,1.00271871,.00010557,0.0157,5.8561,102.2100,261.5191,0,U,40267,999,4291,0,-.265E-5,0
IRNSS-1C,2014-061A,2026-07-02T19:03:19.668096,1.00274305,.00221017,6.5564,88.6335,4.1504,196.8433,0,U,40269,999,4284,0,-.155E-5,0
INTELSAT 30 (IS-30),2014-062A,2026-07-02T13:31:51.138048,1.00277454,.00014443,0.0214,49.9436,357.0524,341.5175,0,U,40271,999,694,0,-.141E-5,0
ARSAT 1,2014-062B,2026-07-02T15:43:36.200640,1.00270091,.00019991,0.0392,290.9521,168.7347,345.0962,0,U,40272,999,4278,0,-.249E-5,0
EUTELSAT 53A,2014-064A,2026-07-03T17:36:30.162816,1.00273458,.0001232,0.0130,309.4726,229.2633,60.1512,0,U,40277,999,4173,0,.109E-5,0
GSAT-16,2014-078A,2026-07-02T21:21:34.588224,1.00271348,.00078129,0.0472,262.0432,186.4293,207.9354,0,U,40332,999,4226,0,.96E-6,0
DIRECTV 14,2014-078B,2026-07-02T10:05:17.774304,1.00271936,.0000293,0.0102,26.2148,2.4668,303.8682,0,U,40333,999,4219,0,-.115E-5,0
