ASTRA 2E                
1 39285U 13056A   26183.85509019  .00000161  00000+0  00000+0 0  9995
2 39285   0.0750 315.0265 0002704 163.6107 138.5858  1.00275076 46578
FM-6                    
1 39360U 13058A   26183.70211649 -.00000005  00000+0  00000+0 0  9992
2 39360   0.0160  40.7600 0001960 138.6453 237.7772  1.00271889 46228
RADUGA-1M 3             
1 39375U 13062A   26183.73212435  .00000161  00000+0  00000+0 0  9992
2 39375   5.9949  72.1589 0001877 282.0892 225.0751  1.00273797 46267
SES-8                   
1 39460U 13071A   26183.80480275 -.00000259  00000+0  00000+0 0  9993
2 39460   0.0422 267.1121 0003042 191.9070 206.5515  1.00272753 44580
INMARSAT 5-F1           
1 39476U 13073A   26183.86988020  .00000038  00000+0  00000+0 0  9993
2 39476   0.0185  28.4066 0000581 336.8665 291.4245  1.00272744 45735
TKSAT-1 (TUPAC KATARI)  
1 39481U 13075A   26183.77922934 -.00000184  00000+0  00000+0 0  9996
2 39481   0.0394 135.7643 0002753 319.4750  18.9061  1.00270892 45764
EXPRESS-AM5             
1 39487U 13077A   26184.25194699 -.00000269  00000+0  00000+0 0  9991
2 39487   0.0200 291.7142 0000218 104.0174 116.2728  1.00269380 46522
GSAT-14                 
1 39498U 14001A   26183.87125525 -.00000066  00000+0  00000+0 0  9995
2 39498   0.0413 238.9741 0001193 323.5335 106.0361  1.00271215 45538
THAICOM 6               
1 39500U 14002A   26183.79047505 -.00000110  00000+0  00000+0 0  9992
2 39500   0.0602 108.9092 0004744   8.4238 166.5786  1.00270897 45619
TDRS 12                 
1 39504U 14004A   26183.78832291 -.00000260  00000+0  00000+0 0  9997
2 39504   3.9918  19.3334 0003584 202.0522 302.2281  1.00277712 44439
ABS-2                   
1 39508U 14006A   26183.87125506 -.00000075  00000+0  00000+0 0  9991
2 39508   0.0231  68.9749 0003847  17.2160 223.2832  1.00271934 45430
ATHENA-FIDUS            
1 39509U 14006B   26183.80389437  .00000165  00000+0  00000+0 0  9999
2 39509   0.0288  94.4527 0001646  18.7048 134.8786  1.00272735 45241
TURKSAT 4A              
1 39522U 14007A   26183.83070201  .00000157  00000+0  00000+0 0  9995
2 39522   0.0862 281.0803 0000726 326.2318  14.6175  1.00273737 45127
EXPRESS-AT1             
1 39612U 14010A   26184.16563295  .00000017  00000+0  00000+0 0  9991
2 39612   0.2972  85.4960 0004549  45.6210 274.0007  1.00308006 44977
EXPRESS-AT2             
1 39613U 14010B   26183.88998265  .00000000  00000+0  00000+0 0  9991
2 39613   0.0185  22.0359 0000327  74.7934 200.4841  1.00270417 44655
AMAZONAS 4A             
1 39616U 14011A   26183.78172192 -.00000241  00000+0  00000+0 0  9995
2 39616   0.0699 210.9618 0004941 278.3284 358.9301  1.00269478 44879
ASTRA 5B                
1 39617U 14011B   26183.85175605  .00000148  00000+0  00000+0 0  9991
2 39617   0.0771 302.4799 0002214 165.1332 143.4211  1.00274657 44823
IRNSS-1B                
1 39635U 14017A   26183.73602436  .00000142  00000+0  00000+0 0  9995
2 39635  28.8979 240.1346 0022895 194.2235 166.4341  1.00271810 44950
LUCH-5V                 
1 39727U 14023A   26184.59937932 -.00000259  00000+0  00000+0 0  9991
2 39727   5.1713  69.5823 0002652  58.4202 104.1308  1.00269639 44524
KAZSAT-3                
1 39728U 14023B   26183.77476564  .00000071  00000+0  00000+0 0  9991
2 39728   0.0106  10.0372 0000339 160.4347  87.7460  1.00274193 42613
EUTELSAT 3B             
1 39773U 14030A   26183.87520402  .00000031  00000+0  00000+0 0  9997
2 39773   0.0604   6.7944 0004188  92.6592 139.6121  1.00271951 44226
ASIASAT 8 (AMOS-7)      
1 40107U 14046A   26183.81363197 -.00000322  00000+0  00000+0 0  9991
2 40107   0.0374 271.3352 0001735 180.2701 227.4435  1.00274517102306
ASIASAT 6               
1 40141U 14052A   26184.97961319 -.00000350  00000+0  00000+0 0  9995
2 40141   0.0303 270.0420 0000800 208.6830 275.8426  1.00273790 43244
OPTUS 10                
1 40146U 14054A   26183.75608924 -.00000137  00000+0  00000+0 0  9990
2 40146   0.1130 348.9527 0002126 112.6926 247.3481  1.00270505 43183
MEASAT-3B               
1 40147U 14054B   26183.87735911 -.00000231  00000+0  00000+0 0  9996
2 40147   0.0243  13.0749 0002547  71.9713 243.2055  1.00271260 43060
HIMAWARI-8              
1 40267U 14060A   26183.85560351 -.00000265  00000+0  00000+0 0  9995
2 40267   0.0157   5.8561 0001055 102.2100 261.5191  1.00271871 42914
IRNSS-1C                
1 40269U 14061A   26183.79397764 -.00000155  00000+0  00000+0 0  9995
2 40269   6.5564  88.6335 0022101   4.1504 196.8433  1.00274305 42846
INTELSAT 30 (IS-30)     
1 40271U 14062A   26183.56378632 -.00000141  00000+0  00000+0 0  9992
2 40271   0.0214  49.9436 0001444 357.0524 341.5175  1.00277454  6942
ARSAT 1                 
1 40272U 14062B   26183.65528010 -.00000249  00000+0  00000+0 0  9999
2 40272   0.0392 290.9521 0001999 168.7347 345.0962  1.00270091 42783
EUTELSAT 53A            
1 40277U 14064A   26184.73368244  .00000109  00000+0  00000+0 0  9991
2 40277   0.0130 309.4726 0001232 229.2633  60.1512  1.00273458 41732
GSAT-16                 
1 40332U 14078A   26183.88998366  .00000096  00000+0  00000+0 0  9992
2 40332   0.0472 262.0432 0007812 186.4293 207.9354  1.00271348 42267
DIRECTV 14              
1 40333U 14078B   26183.42034461 -.00000115  00000+0  00000+0 0  9993
2 40333   0.0102  26.2148 0000293   2.4668 303.8682  1.00271936 42196
